[{"OBJECT_NAME":"STARLINK-35964","OBJECT_ID":"2025-278F","EPOCH":"2026-03-09T11:15:11.371104","MEAN_MOTION":15.27590262,"ECCENTRICITY":0.00023157,"INCLINATION":43.0059,"RA_OF_ASC_NODE":100.7099,"ARG_OF_PERICENTER":252.2237,"MEAN_ANOMALY":107.8362,"EPHEMERIS_TYPE":0,"CLASSIFICATION_TYPE":"U","NORAD_CAT_ID":66796,"ELEMENT_SET_NO":999,"REV_AT_EPOCH":1534,"BSTAR":0.0010740251,"MEAN_MOTION_DOT":0.00029421,"MEAN_MOTION_DDOT":0},{"OBJECT_NAME":"CZ-4C DEB","OBJECT_ID":"2007-055C","EPOCH":"2026-03-09T22:46:15.652128","MEAN_MOTION":15.30523578,"ECCENTRICITY":0.00469709,"INCLINATION":97.8668,"RA_OF_ASC_NODE":247.2248,"ARG_OF_PERICENTER":277.363,"MEAN_ANOMALY":82.2273,"EPHEMERIS_TYPE":0,"CLASSIFICATION_TYPE":"U","NORAD_CAT_ID":35248,"ELEMENT_SET_NO":999,"REV_AT_EPOCH":97353,"BSTAR":0.0018809895,"MEAN_MOTION_DOT":0.000577,"MEAN_MOTION_DDOT":0}]
